     2              NAVIGATION DATA                         RINEX VERSION / TYPE
CCRINEXN V1.6.0 UX  CDDIS               07-MAY-16 15:33     PGM / RUN BY / DATE 
IGS BROADCAST EPHEMERIS FILE                                COMMENT             
    0.8382D-08  0.2235D-07 -0.5960D-07 -0.1192D-06          ION ALPHA           
    0.8602D+05  0.6554D+05 -0.1311D+06 -0.4588D+06          ION BETA            
    0.372529029846D-08 0.444089209850D-14    61440     1896 DELTA-UTC: A0,A1,T,W
    17                                                      LEAP SECONDS        
                                                            END OF HEADER       
 5 16  5  6 22  0  0.0-0.122972764075D-03 0.306954461848D-11 0.000000000000D+00
    0.790000000000D+02-0.540937500000D+02 0.502520932014D-08 0.313137880533D+01
   -0.282749533653D-05 0.458236422855D-02 0.829063355923D-05 0.515377851486D+04
    0.511200000000D+06 0.614672899246D-07-0.755485184007D+00-0.447034835815D-07
    0.946270578848D+00 0.212406250000D+03 0.456948332749D+00-0.823712882376D-08
   -0.722887254013D-09 0.100000000000D+01 0.189500000000D+04 0.000000000000D+00
    0.200000000000D+01 0.000000000000D+00-0.107102096081D-07 0.790000000000D+02
    0.504018000000D+06 0.400000000000D+01 0.000000000000D+00 0.000000000000D+00
 6 16  5  6 22  0  0.0 0.186418183148D-03 0.557065504836D-11 0.000000000000D+00
    0.350000000000D+02 0.347187500000D+02 0.493091967257D-08 0.600312156954D+00
    0.181049108505D-05 0.449610408396D-03 0.546313822269D-05 0.515367308807D+04
    0.511200000000D+06 0.130385160446D-07-0.179411190389D+01-0.335276126862D-07
    0.963684330578D+00 0.278125000000D+03-0.145118147080D+01-0.826605894844D-08
    0.282154605236D-09 0.100000000000D+01 0.189500000000D+04 0.000000000000D+00
    0.200000000000D+01 0.000000000000D+00 0.419095158577D-08 0.350000000000D+02
    0.504000000000D+06 0.000000000000D+00 0.000000000000D+00 0.000000000000D+00
 7 16  5  6 22  0  0.0 0.456083565950D-03-0.216004991671D-11 0.000000000000D+00
    0.820000000000D+02 0.701250000000D+02 0.487127433670D-08-0.478531937896D+00
    0.386685132980D-05 0.936198618729D-02 0.908970832825D-06 0.515365060043D+04
    0.511200000000D+06 0.132247805595D-06 0.137344285549D+01 0.484287738800D-07
    0.966379081270D+00 0.363562500000D+03-0.268078489425D+01-0.873322091656D-08
    0.402873924173D-09 0.100000000000D+01 0.189500000000D+04 0.000000000000D+00
    0.200000000000D+01 0.000000000000D+00-0.111758708954D-07 0.820000000000D+02
    0.504018000000D+06 0.400000000000D+01 0.000000000000D+00 0.000000000000D+00
 8 16  5  6 22  0  0.0-0.341339036822D-04-0.136424205266D-11 0.000000000000D+00
    0.720000000000D+02-0.211250000000D+02 0.433482341994D-08-0.300763829653D+01
   -0.972300767899D-06 0.178104860242D-02 0.135470181704D-04 0.515369078827D+04
    0.511200000000D+06-0.186264514923D-08-0.284576885267D+01 0.540167093277D-07
    0.963375303763D+00 0.120937500000D+03-0.113487206375D+01-0.777675250439D-08
    0.338585532018D-09 0.100000000000D+01 0.189500000000D+04 0.000000000000D+00
    0.200000000000D+01 0.000000000000D+00 0.465661287308D-08 0.720000000000D+02
    0.504018000000D+06 0.400000000000D+01 0.000000000000D+00 0.000000000000D+00
 9 16  5  6 22  0  0.0 0.124036800116D-03 0.738964445190D-11 0.000000000000D+00
    0.710000000000D+02 0.112062500000D+03 0.410124226177D-08 0.207763402084D+01
    0.582449138165D-05 0.612725969404D-03 0.127963721752D-04 0.515359818459D+04
    0.511200000000D+06-0.335276126862D-07 0.295369531212D+00 0.104308128357D-06
    0.955693752069D+00 0.130593750000D+03 0.219859180198D+01-0.778746723641D-08
    0.946467995620D-10 0.100000000000D+01 0.189500000000D+04 0.000000000000D+00
    0.200000000000D+01 0.000000000000D+00 0.139698386192D-08 0.710000000000D+02
    0.504018000000D+06 0.400000000000D+01 0.000000000000D+00 0.000000000000D+00
10 16  5  6 22  0  0.0-0.160639174283D-04-0.920863385545D-11 0.000000000000D+00
    0.890000000000D+02-0.584687500000D+02 0.457876215239D-08-0.208576407542D+01
   -0.303983688354D-05 0.146730931010D-02 0.835582613945D-05 0.515367893410D+04
    0.511200000000D+06-0.121071934700D-06-0.747892260280D+00-0.149011611938D-07
    0.959444495549D+00 0.219281250000D+03-0.273290154393D+01-0.802569144512D-08
   -0.673242328960D-09 0.000000000000D+00 0.189500000000D+04 0.000000000000D+00
    0.280000000000D+01 0.000000000000D+00 0.232830643654D-08 0.890000000000D+02
    0.504000000000D+06 0.400000000000D+01 0.000000000000D+00 0.000000000000D+00
11 16  5  6 22  0  0.0-0.645838212222D-03-0.204636307899D-11 0.000000000000D+00
    0.330000000000D+02 0.620312500000D+02 0.650848539025D-08-0.360366526507D+00
    0.343844294548D-05 0.163189291488D-01 0.746175646782D-05 0.515365387535D+04
    0.511200000000D+06-0.188127160072D-06-0.216132134090D+01 0.141561031342D-06
    0.896297314815D+00 0.202375000000D+03 0.151992057543D+01-0.932181686252D-08
    0.600739308918D-09 0.100000000000D+01 0.189500000000D+04 0.000000000000D+00
    0.280000000000D+01 0.000000000000D+00-0.121071934700D-07 0.330000000000D+02
    0.504018000000D+06 0.400000000000D+01 0.000000000000D+00 0.000000000000D+00
12 16  5  6 22  0  0.0 0.378818251193D-03 0.125055521494D-11 0.000000000000D+00
    0.760000000000D+02-0.142406250000D+03 0.415481592190D-08-0.100710868676D+01
   -0.725314021111D-05 0.613190454896D-02 0.578723847866D-05 0.515373919487D+04
    0.511200000000D+06 0.169500708580D-06 0.244964573659D+01 0.838190317154D-07
    0.990323612371D+00 0.284781250000D+03 0.731829642133D+00-0.806212153401D-08
   -0.399659504565D-09 0.000000000000D+00 0.189500000000D+04 0.000000000000D+00
    0.200000000000D+01 0.000000000000D+00-0.125728547573D-07 0.760000000000D+02
    0.504000000000D+06 0.400000000000D+01 0.000000000000D+00 0.000000000000D+00
13 16  5  6 22  0  0.0-0.160206109285D-04-0.261479726760D-11 0.000000000000D+00
    0.650000000000D+02 0.124937500000D+03 0.390194824609D-08 0.449113923672D+00
    0.643916428089D-05 0.445553357713D-02 0.124536454678D-04 0.515369055557D+04
    0.511200000000D+06 0.223517417908D-07 0.415711985604D+00-0.689178705216D-07
    0.972071035118D+00 0.142125000000D+03 0.200110762041D+01-0.786818488434D-08
    0.221437795202D-09 0.100000000000D+01 0.189500000000D+04 0.000000000000D+00
    0.200000000000D+01 0.000000000000D+00-0.111758708954D-07 0.650000000000D+02
    0.504018000000D+06 0.400000000000D+01 0.000000000000D+00 0.000000000000D+00
14 16  5  6 22  0  0.0-0.123935751617D-04-0.204636307899D-11 0.000000000000D+00
    0.390000000000D+02 0.103812500000D+03 0.394159275459D-08 0.220440697303D+01
    0.552833080292D-05 0.856750411913D-02 0.125411897898D-04 0.515401791573D+04
    0.511200000000D+06 0.614672899246D-07 0.378815724338D+00-0.210478901863D-06
    0.964574312883D+00 0.137062500000D+03-0.196716432072D+01-0.767889128522D-08
    0.234652631367D-09 0.000000000000D+00 0.189500000000D+04 0.000000000000D+00
    0.200000000000D+01 0.000000000000D+00-0.931322574616D-08 0.390000000000D+02
    0.504000000000D+06 0.400000000000D+01 0.000000000000D+00 0.000000000000D+00
15 16  5  6 22  0  0.0-0.309732742608D-03-0.170530256582D-11 0.000000000000D+00
    0.420000000000D+02 0.817500000000D+02 0.466233706220D-08 0.151849014438D+01
    0.436045229435D-05 0.810067099519D-02 0.139679759741D-04 0.515359945679D+04
    0.511200000000D+06-0.949949026108D-07 0.243347665459D+00 0.335276126862D-07
    0.931428357684D+00 0.934375000000D+02 0.483140684292D+00-0.815498254490D-08
   -0.123219418298D-09 0.100000000000D+01 0.189500000000D+04 0.000000000000D+00
    0.200000000000D+01 0.000000000000D+00-0.107102096081D-07 0.420000000000D+02
    0.504000000000D+06 0.400000000000D+01 0.000000000000D+00 0.000000000000D+00
16 16  5  6 22  0  0.0-0.194152817130D-04 0.261479726760D-11 0.000000000000D+00
    0.440000000000D+02-0.139500000000D+03 0.396337937637D-08-0.304449689789D+01
   -0.726245343685D-05 0.877015793230D-02 0.673159956932D-05 0.515375768280D+04
    0.511200000000D+06-0.189989805222D-06 0.246841747568D+01-0.100582838059D-06
    0.990849802060D+00 0.267343750000D+03 0.373834448780D+00-0.779782481070D-08
   -0.413231498465D-09 0.000000000000D+00 0.189500000000D+04 0.000000000000D+00
    0.200000000000D+01 0.000000000000D+00-0.107102096081D-07 0.440000000000D+02
    0.504090000000D+06 0.400000000000D+01 0.000000000000D+00 0.000000000000D+00
17 16  5  6 22  0  0.0-0.203599222004D-03-0.113686837722D-12 0.000000000000D+00
    0.430000000000D+02-0.336875000000D+02 0.390409119250D-08 0.234643083595D+01
   -0.183656811714D-05 0.109466658905D-01 0.142846256495D-04 0.515368939018D+04
    0.511200000000D+06 0.447034835815D-07-0.279348544203D+01-0.135973095894D-06
    0.976504308878D+00 0.106531250000D+03-0.192885055913D+01-0.743316676409D-08
    0.371444043564D-09 0.100000000000D+01 0.189500000000D+04 0.000000000000D+00
    0.200000000000D+01 0.000000000000D+00-0.107102096081D-07 0.430000000000D+02
    0.504402000000D+06 0.400000000000D+01 0.000000000000D+00 0.000000000000D+00
18 16  5  6 22  0  0.0 0.512692146003D-03 0.420641299570D-11 0.000000000000D+00
    0.810000000000D+02-0.670625000000D+02 0.533236497155D-08-0.237910109847D+01
   -0.345148146152D-05 0.171234951122D-01 0.716745853424D-05 0.515367664719D+04
    0.511200000000D+06 0.175088644028D-06-0.776116411929D+00-0.132247805595D-06
    0.924902487867D+00 0.220031250000D+03-0.189046468446D+01-0.819212694926D-08
   -0.609668252273D-09 0.000000000000D+00 0.189500000000D+04 0.000000000000D+00
    0.280000000000D+01 0.000000000000D+00-0.121071934700D-07 0.810000000000D+02
    0.504000000000D+06 0.400000000000D+01 0.000000000000D+00 0.000000000000D+00
